LANDSAT 9               
1 49260U 21088A   24265.17106535  .00001211  00000+0  27871-3 0  9999
2 49260  98.2234 333.5761 0001247  86.2619 273.8722 14.57127753158664
